[{"OBJECT_NAME":"SHIYAN-6 01 (SY-6 01)","OBJECT_ID":"2018-094B","EPOCH":"2026-03-09T23:04:36.967872","MEAN_MOTION":15.28649156,"ECCENTRICITY":0.00144834,"INCLINATION":97.3669,"RA_OF_ASC_NODE":84.0964,"ARG_OF_PERICENTER":135.6758,"MEAN_ANOMALY":224.5644,"EPHEMERIS_TYPE":0,"CLASSIFICATION_TYPE":"U","NORAD_CAT_ID":43711,"ELEMENT_SET_NO":999,"REV_AT_EPOCH":40632,"BSTAR":0.00024768444,"MEAN_MOTION_DOT":6.847e-5,"MEAN_MOTION_DDOT":0},{"OBJECT_NAME":"STARLINK-34587","OBJECT_ID":"2025-144M","EPOCH":"2026-03-09T14:02:44.943360","MEAN_MOTION":15.30212261,"ECCENTRICITY":6.93e-5,"INCLINATION":53.1587,"RA_OF_ASC_NODE":181.6896,"ARG_OF_PERICENTER":74.6294,"MEAN_ANOMALY":285.4784,"EPHEMERIS_TYPE":0,"CLASSIFICATION_TYPE":"U","NORAD_CAT_ID":64735,"ELEMENT_SET_NO":999,"REV_AT_EPOCH":3964,"BSTAR":-0.00014419,"MEAN_MOTION_DOT":-4.628e-5,"MEAN_MOTION_DDOT":0}]
